TEVEL2-7                
1 63238U 25052AE  26068.66113295  .00019244  00000+0  69668-3 0  9998
2 63238  97.4054 324.3041 0008105 124.6830 235.5175 15.28414096 54803
STARLINK-35500          
1 66093U 25236H   26068.48067529  .00031251  00000+0  10640-2 0  9999
2 66093  53.1593 104.7689 0001160  74.6283 285.4846 15.30164158 22910
